[{"OBJECT_NAME":"STARLINK-35635","OBJECT_ID":"2025-240R","EPOCH":"2026-03-09T06:34:38.166240","MEAN_MOTION":15.30188527,"ECCENTRICITY":0.00012187,"INCLINATION":53.1592,"RA_OF_ASC_NODE":64.826,"ARG_OF_PERICENTER":80.9954,"MEAN_ANOMALY":279.1185,"EPHEMERIS_TYPE":0,"CLASSIFICATION_TYPE":"U","NORAD_CAT_ID":66161,"ELEMENT_SET_NO":999,"REV_AT_EPOCH":2192,"BSTAR":0.00039263927,"MEAN_MOTION_DOT":0.00011283,"MEAN_MOTION_DDOT":0},{"OBJECT_NAME":"GLOBAL-34","OBJECT_ID":"2026-043A","EPOCH":"2026-03-09T11:23:30.999840","MEAN_MOTION":15.31488019,"ECCENTRICITY":0.00068849,"INCLINATION":42.0215,"RA_OF_ASC_NODE":76.7399,"ARG_OF_PERICENTER":289.2632,"MEAN_ANOMALY":70.746,"EPHEMERIS_TYPE":0,"CLASSIFICATION_TYPE":"U","NORAD_CAT_ID":68098,"ELEMENT_SET_NO":999,"REV_AT_EPOCH":53,"BSTAR":0.00045822046,"MEAN_MOTION_DOT":0.00014018,"MEAN_MOTION_DDOT":0}]
