STARLINK-35635          
1 66161U 25240R   26068.27405285  .00011283  00000+0  39264-3 0  9999
2 66161  53.1592  64.8260 0001218  80.9954 279.1185 15.30188527 21927
GLOBAL-34               
1 68098U 26043A   26068.47466435  .00014018  00000+0  45822-3 0  9994
2 68098  42.0215  76.7399 0006884 289.2632  70.7460 15.31488019   538
